{
  "links" : {
    "next" : "https://api.nasa.gov/neo/rest/v1/feed?start_date=2016-02-23&end_date=2016-02-23&detailed=true&api_key=t0TVs3DtDT2H8Oy2Zy8m2eVrNsAVKAexjcZXUckd",
    "prev" : "https://api.nasa.gov/neo/rest/v1/feed?start_date=2016-02-21&end_date=2016-02-21&detailed=true&api_key=t0TVs3DtDT2H8Oy2Zy8m2eVrNsAVKAexjcZXUckd",
    "self" : "https://api.nasa.gov/neo/rest/v1/feed?start_date=2016-02-22&end_date=2016-02-22&detailed=true&api_key=t0TVs3DtDT2H8Oy2Zy8m2eVrNsAVKAexjcZXUckd"
  },
  "element_count" : 8,
  "near_earth_objects" : {
    "2016-02-22" : [ {
      "links" : {
        "self" : "https://api.nasa.gov/neo/rest/v1/neo/3744992?api_key=t0TVs3DtDT2H8Oy2Zy8m2eVrNsAVKAexjcZXUckd"
      },
      "neo_reference_id" : "3744992",
      "name" : "(2016 EE)",
      "nasa_jpl_url" : "http://ssd.jpl.nasa.gov/sbdb.cgi?sstr=3744992",
      "absolute_magnitude_h" : 25.5,
      "estimated_diameter" : {
        "kilometers" : {
          "estimated_diameter_min" : 0.0211132445,
          "estimated_diameter_max" : 0.0472106499
        },
        "meters" : {
          "estimated_diameter_min" : 21.113244479,
          "estimated_diameter_max" : 47.2106498806
        },
        "miles" : {
          "estimated_diameter_min" : 0.0131191578,
          "estimated_diameter_max" : 0.0293353287
        },
        "feet" : {
          "estimated_diameter_min" : 69.2691770164,
          "estimated_diameter_max" : 154.8905885541
        }
      },
      "is_potentially_hazardous_asteroid" : false,
      "close_approach_data" : [ {
        "close_approach_date" : "2016-02-22",
        "epoch_date_close_approach" : 1456128000000,
        "relative_velocity" : {
          "kilometers_per_second" : "9.8017356459",
          "kilometers_per_hour" : "35286.2483250673",
          "miles_per_hour" : "21925.5024662064"
        },
        "miss_distance" : {
          "astronomical" : "0.0214638325",
          "lunar" : "8.3494310379",
          "kilometers" : "3210943.5",
          "miles" : "1995187.875"
        },
        "orbiting_body" : "Earth"
      } ],
      "orbital_data" : {
        "orbit_id" : "6",
        "orbit_determination_date" : "2017-04-06 08:27:56",
        "orbit_uncertainty" : "8",
        "minimum_orbit_intersection" : ".0206711",
        "jupiter_tisserand_invariant" : "4.067",
        "epoch_osculation" : "2457450.5",
        "eccentricity" : ".4744444116958503",
        "semi_major_axis" : "1.699905129977626",
        "inclination" : "2.165402807508139",
        "ascending_node_longitude" : "185.935498049808",
        "orbital_period" : "809.5346710908562",
        "perihelion_distance" : ".8933946406466334",
        "perihelion_argument" : "280.5455051409348",
        "aphelion_distance" : "2.506415619308619",
        "perihelion_time" : "2457405.982404813017",
        "mean_anomaly" : "19.79697082734978",
        "mean_motion" : ".4446999157119439",
        "equinox" : "J2000"
      }
    }, {
      "links" : {
        "self" : "https://api.nasa.gov/neo/rest/v1/neo/2162980?api_key=t0TVs3DtDT2H8Oy2Zy8m2eVrNsAVKAexjcZXUckd"
      },
      "neo_reference_id" : "2162980",
      "name" : "162980 (2001 RR17)",
      "nasa_jpl_url" : "http://ssd.jpl.nasa.gov/sbdb.cgi?sstr=2162980",
      "absolute_magnitude_h" : 16.7,
      "estimated_diameter" : {
        "kilometers" : {
          "estimated_diameter_min" : 1.214940408,
          "estimated_diameter_max" : 2.7166893409
        },
        "meters" : {
          "estimated_diameter_min" : 1214.9404079963,
          "estimated_diameter_max" : 2716.6893408911
        },
        "miles" : {
          "estimated_diameter_min" : 0.7549287363,
          "estimated_diameter_max" : 1.6880719724
        },
        "feet" : {
          "estimated_diameter_min" : 3986.0250881707,
          "estimated_diameter_max" : 8913.0230571693
        }
      },
      "is_potentially_hazardous_asteroid" : false,
      "close_approach_data" : [ {
        "close_approach_date" : "2016-02-22",
        "epoch_date_close_approach" : 1456128000000,
        "relative_velocity" : {
          "kilometers_per_second" : "21.58901913",
          "kilometers_per_hour" : "77720.4688679615",
          "miles_per_hour" : "48292.4768918731"
        },
        "miss_distance" : {
          "astronomical" : "0.2856239946",
          "lunar" : "111.1077346802",
          "kilometers" : "42728744",
          "miles" : "26550410"
        },
        "orbiting_body" : "Earth"
      } ],
      "orbital_data" : {
        "orbit_id" : "158",
        "orbit_determination_date" : "2017-04-06 09:26:21",
        "orbit_uncertainty" : "0",
        "minimum_orbit_intersection" : ".196605",
        "jupiter_tisserand_invariant" : "4.172",
        "epoch_osculation" : "2458000.5",
        "eccentricity" : ".4888407629099562",
        "semi_major_axis" : "1.553141514961304",
        "inclination" : "30.39720561568021",
        "ascending_node_longitude" : "177.6372899777553",
        "orbital_period" : "706.9927650067953",
        "perihelion_distance" : ".793902631880495",
        "perihelion_argument" : "351.4310134518737",
        "aphelion_distance" : "2.312380398042113",
        "perihelion_time" : "2458151.996631020876",
        "mean_anomaly" : "282.8580688983555",
        "mean_motion" : ".5091989873425931",
        "equinox" : "J2000"
      }
    }, {
      "links" : {
        "self" : "https://api.nasa.gov/neo/rest/v1/neo/2455594?api_key=t0TVs3DtDT2H8Oy2Zy8m2eVrNsAVKAexjcZXUckd"
      },
      "neo_reference_id" : "2455594",
      "name" : "455594 (2004 SV55)",
      "nasa_jpl_url" : "http://ssd.jpl.nasa.gov/sbdb.cgi?sstr=2455594",
      "absolute_magnitude_h" : 18.0,
      "estimated_diameter" : {
        "kilometers" : {
          "estimated_diameter_min" : 0.6676594135,
          "estimated_diameter_max" : 1.4929318344
        },
        "meters" : {
          "estimated_diameter_min" : 667.6594134952,
          "estimated_diameter_max" : 1492.931834393
        },
        "miles" : {
          "estimated_diameter_min" : 0.4148641974,
          "estimated_diameter_max" : 0.9276645469
        },
        "feet" : {
          "estimated_diameter_min" : 2190.4837101717,
          "estimated_diameter_max" : 4898.07047955
        }
      },
      "is_potentially_hazardous_asteroid" : false,
      "close_approach_data" : [ {
        "close_approach_date" : "2016-02-22",
        "epoch_date_close_approach" : 1456128000000,
        "relative_velocity" : {
          "kilometers_per_second" : "38.1676170137",
          "kilometers_per_hour" : "137403.4212491616",
          "miles_per_hour" : "85377.1424978471"
        },
        "miss_distance" : {
          "astronomical" : "0.4000823291",
          "lunar" : "155.632019043",
          "kilometers" : "59851464",
          "miles" : "37189976"
        },
        "orbiting_body" : "Earth"
      } ],
      "orbital_data" : {
        "orbit_id" : "44",
        "orbit_determination_date" : "2017-04-06 09:19:56",
        "orbit_uncertainty" : "0",
        "minimum_orbit_intersection" : ".0908576",
        "jupiter_tisserand_invariant" : "3.617",
        "epoch_osculation" : "2458000.5",
        "eccentricity" : ".658253761871226",
        "semi_major_axis" : "1.758951796103146",
        "inclination" : "41.16805487882969",
        "ascending_node_longitude" : "344.6001518923252",
        "orbital_period" : "852.0779633208997",
        "perihelion_distance" : ".6011151593681003",
        "perihelion_argument" : "280.8127891412237",
        "aphelion_distance" : "2.916788432838191",
        "perihelion_time" : "2458338.742863366277",
        "mean_anomaly" : "217.0935570997731",
        "mean_motion" : ".4224965501946927",
        "equinox" : "J2000"
      }
    } ]
  }
}